CCSDS_OMM_VERS = 2.0
CREATION_DATE  = 
ORIGINATOR     = 

OBJECT_NAME    = SL-16 R/B
OBJECT_ID      = 1998-043G
CENTER_NAME    = EARTH
REF_FRAME      = TEME
TIME_SYSTEM    = UTC
MEAN_ELEMENT_THEORY = SGP/SGP4

EPOCH          = 2026-01-11T19:53:25.857600
MEAN_MOTION    = 14.26034032
ECCENTRICITY   = .00098699
INCLINATION    = 98.8165
RA_OF_ASC_NODE = 324.8218
ARG_OF_PERICENTER = 173.3211
MEAN_ANOMALY   = 186.8102

EPHEMERIS_TYPE = 0
CLASSIFICATION_TYPE = U
NORAD_CAT_ID   = 25400
ELEMENT_SET_NO = 999
REV_AT_EPOCH   = 43088
BSTAR          = .45101288E-4
MEAN_MOTION_DOT = .63E-6
MEAN_MOTION_DDOT = 0

CCSDS_OMM_VERS = 2.0
CREATION_DATE  = 
ORIGINATOR     = 

OBJECT_NAME    = SL-16 R/B
OBJECT_ID      = 1998-045B
CENTER_NAME    = EARTH
REF_FRAME      = TEME
TIME_SYSTEM    = UTC
MEAN_ELEMENT_THEORY = SGP/SGP4

EPOCH          = 2026-01-11T22:12:26.288064
MEAN_MOTION    = 14.16180085
ECCENTRICITY   = .00053451
INCLINATION    = 71.0122
RA_OF_ASC_NODE = 300.9474
ARG_OF_PERICENTER = 122.2160
MEAN_ANOMALY   = 237.9482

EPHEMERIS_TYPE = 0
CLASSIFICATION_TYPE = U
NORAD_CAT_ID   = 25407
ELEMENT_SET_NO = 999
REV_AT_EPOCH   = 41906
BSTAR          = -.17505496E-4
MEAN_MOTION_DOT = -.82E-6
MEAN_MOTION_DDOT = 0

CCSDS_OMM_VERS = 2.0
CREATION_DATE  = 
ORIGINATOR     = 

OBJECT_NAME    = ISS (ZARYA)
OBJECT_ID      = 1998-067A
CENTER_NAME    = EARTH
REF_FRAME      = TEME
TIME_SYSTEM    = UTC
MEAN_ELEMENT_THEORY = SGP/SGP4

EPOCH          = 2026-01-11T22:03:12.004416
MEAN_MOTION    = 15.49245617
ECCENTRICITY   = .00077091
INCLINATION    = 51.6333
RA_OF_ASC_NODE = 353.0651
ARG_OF_PERICENTER = 8.0909
MEAN_ANOMALY   = 352.0202

EPHEMERIS_TYPE = 0
CLASSIFICATION_TYPE = U
NORAD_CAT_ID   = 25544
ELEMENT_SET_NO = 999
REV_AT_EPOCH   = 54753
BSTAR          = .1900602E-3
MEAN_MOTION_DOT = .10131E-3
MEAN_MOTION_DDOT = 0

CCSDS_OMM_VERS = 2.0
CREATION_DATE  = 
ORIGINATOR     = 

OBJECT_NAME    = CZ-4B R/B
OBJECT_ID      = 1999-025C
CENTER_NAME    = EARTH
REF_FRAME      = TEME
TIME_SYSTEM    = UTC
MEAN_ELEMENT_THEORY = SGP/SGP4

EPOCH          = 2026-01-11T17:48:38.732544
MEAN_MOTION    = 14.18251839
ECCENTRICITY   = .00377326
INCLINATION    = 98.6729
RA_OF_ASC_NODE = 57.3449
ARG_OF_PERICENTER = 147.4499
MEAN_ANOMALY   = 322.0809

EPHEMERIS_TYPE = 0
CLASSIFICATION_TYPE = U
NORAD_CAT_ID   = 25732
ELEMENT_SET_NO = 999
REV_AT_EPOCH   = 38009
BSTAR          = .50221141E-4
MEAN_MOTION_DOT = .61E-6
MEAN_MOTION_DDOT = 0

CCSDS_OMM_VERS = 2.0
CREATION_DATE  = 
ORIGINATOR     = 

OBJECT_NAME    = OKEAN-O
OBJECT_ID      = 1999-039A
CENTER_NAME    = EARTH
REF_FRAME      = TEME
TIME_SYSTEM    = UTC
MEAN_ELEMENT_THEORY = SGP/SGP4

EPOCH          = 2026-01-11T20:55:02.298432
MEAN_MOTION    = 14.80224013
ECCENTRICITY   = .00016218
INCLINATION    = 97.9559
RA_OF_ASC_NODE = 72.3067
ARG_OF_PERICENTER = 109.9551
MEAN_ANOMALY   = 250.1836

EPHEMERIS_TYPE = 0
CLASSIFICATION_TYPE = U
NORAD_CAT_ID   = 25860
ELEMENT_SET_NO = 999
REV_AT_EPOCH   = 42598
BSTAR          = .11921342E-3
MEAN_MOTION_DOT = .854E-5
MEAN_MOTION_DDOT = 0

CCSDS_OMM_VERS = 2.0
CREATION_DATE  = 
ORIGINATOR     = 

OBJECT_NAME    = SL-16 R/B
OBJECT_ID      = 1999-039B
CENTER_NAME    = EARTH
REF_FRAME      = TEME
TIME_SYSTEM    = UTC
MEAN_ELEMENT_THEORY = SGP/SGP4

EPOCH          = 2026-01-11T21:43:38.910144
MEAN_MOTION    = 14.81638619
ECCENTRICITY   = .00161639
INCLINATION    = 98.0082
RA_OF_ASC_NODE = 71.0523
ARG_OF_PERICENTER = 82.6746
MEAN_ANOMALY   = 277.6303

EPHEMERIS_TYPE = 0
CLASSIFICATION_TYPE = U
NORAD_CAT_ID   = 25861
ELEMENT_SET_NO = 999
REV_AT_EPOCH   = 42845
BSTAR          = .84391283E-4
MEAN_MOTION_DOT = .611E-5
MEAN_MOTION_DDOT = 0

CCSDS_OMM_VERS = 2.0
CREATION_DATE  = 
ORIGINATOR     = 

OBJECT_NAME    = DELTA 2 R/B
OBJECT_ID      = 1999-041E
CENTER_NAME    = EARTH
REF_FRAME      = TEME
TIME_SYSTEM    = UTC
MEAN_ELEMENT_THEORY = SGP/SGP4

EPOCH          = 2026-01-11T21:02:21.027264
MEAN_MOTION    = 14.11536213
ECCENTRICITY   = .05037388
INCLINATION    = 51.7602
RA_OF_ASC_NODE = 168.1332
ARG_OF_PERICENTER = 180.5994
MEAN_ANOMALY   = 179.4393

EPHEMERIS_TYPE = 0
CLASSIFICATION_TYPE = U
NORAD_CAT_ID   = 25876
ELEMENT_SET_NO = 999
REV_AT_EPOCH   = 35500
BSTAR          = .57006771E-3
MEAN_MOTION_DOT = .3313E-4
MEAN_MOTION_DDOT = 0

CCSDS_OMM_VERS = 2.0
CREATION_DATE  = 
ORIGINATOR     = 

OBJECT_NAME    = HELIOS 1B
OBJECT_ID      = 1999-064A
CENTER_NAME    = EARTH
REF_FRAME      = TEME
TIME_SYSTEM    = UTC
MEAN_ELEMENT_THEORY = SGP/SGP4

EPOCH          = 2026-01-11T19:23:23.443008
MEAN_MOTION    = 14.87430564
ECCENTRICITY   = .00004407
INCLINATION    = 98.1743
RA_OF_ASC_NODE = 272.3670
ARG_OF_PERICENTER = 123.5770
MEAN_ANOMALY   = 236.5488

EPHEMERIS_TYPE = 0
CLASSIFICATION_TYPE = U
NORAD_CAT_ID   = 25977
ELEMENT_SET_NO = 999
REV_AT_EPOCH   = 67680
BSTAR          = .23151234E-3
MEAN_MOTION_DOT = .2037E-4
MEAN_MOTION_DDOT = 0

CCSDS_OMM_VERS = 2.0
CREATION_DATE  = 
ORIGINATOR     = 

OBJECT_NAME    = TERRA
OBJECT_ID      = 1999-068A
CENTER_NAME    = EARTH
REF_FRAME      = TEME
TIME_SYSTEM    = UTC
MEAN_ELEMENT_THEORY = SGP/SGP4

EPOCH          = 2026-01-11T22:42:34.850016
MEAN_MOTION    = 14.60942333
ECCENTRICITY   = .00025659
INCLINATION    = 97.9706
RA_OF_ASC_NODE = 67.5157
ARG_OF_PERICENTER = 31.5856
MEAN_ANOMALY   = 69.6499

EPHEMERIS_TYPE = 0
CLASSIFICATION_TYPE = U
NORAD_CAT_ID   = 25994
ELEMENT_SET_NO = 999
REV_AT_EPOCH   = 38679
BSTAR          = .10914768E-3
MEAN_MOTION_DOT = .49E-5
MEAN_MOTION_DDOT = 0

CCSDS_OMM_VERS = 2.0
CREATION_DATE  = 
ORIGINATOR     = 

OBJECT_NAME    = SL-16 R/B
OBJECT_ID      = 2000-006B
CENTER_NAME    = EARTH
REF_FRAME      = TEME
TIME_SYSTEM    = UTC
MEAN_ELEMENT_THEORY = SGP/SGP4

EPOCH          = 2026-01-11T22:13:20.617248
MEAN_MOTION    = 14.15814996
ECCENTRICITY   = .0018998
INCLINATION    = 71.0007
RA_OF_ASC_NODE = 217.1887
ARG_OF_PERICENTER = 268.2954
MEAN_ANOMALY   = 91.5993

EPHEMERIS_TYPE = 0
CLASSIFICATION_TYPE = U
NORAD_CAT_ID   = 26070
ELEMENT_SET_NO = 999
REV_AT_EPOCH   = 34052
BSTAR          = -.86989425E-4
MEAN_MOTION_DOT = -.219E-5
MEAN_MOTION_DDOT = 0

CCSDS_OMM_VERS = 2.0
CREATION_DATE  = 
ORIGINATOR     = 

OBJECT_NAME    = TITAN 4B R/B
OBJECT_ID      = 2000-047B
CENTER_NAME    = EARTH
REF_FRAME      = TEME
TIME_SYSTEM    = UTC
MEAN_ELEMENT_THEORY = SGP/SGP4

EPOCH          = 2026-01-11T23:16:42.141216
MEAN_MOTION    = 15.09035339
ECCENTRICITY   = .0037147
INCLINATION    = 67.9879
RA_OF_ASC_NODE = 199.9381
ARG_OF_PERICENTER = 106.9637
MEAN_ANOMALY   = 253.5589

EPHEMERIS_TYPE = 0
CLASSIFICATION_TYPE = U
NORAD_CAT_ID   = 26474
ELEMENT_SET_NO = 999
REV_AT_EPOCH   = 38435
BSTAR          = .26551823E-3
MEAN_MOTION_DOT = .4145E-4
MEAN_MOTION_DDOT = 0

CCSDS_OMM_VERS = 2.0
CREATION_DATE  = 
ORIGINATOR     = 

OBJECT_NAME    = ENVISAT
OBJECT_ID      = 2002-009A
CENTER_NAME    = EARTH
REF_FRAME      = TEME
TIME_SYSTEM    = UTC
MEAN_ELEMENT_THEORY = SGP/SGP4

EPOCH          = 2026-01-11T20:45:53.869248
MEAN_MOTION    = 14.39012521
ECCENTRICITY   = .00011355
INCLINATION    = 98.3640
RA_OF_ASC_NODE = 326.8488
ARG_OF_PERICENTER = 91.5138
MEAN_ANOMALY   = 283.5662

EPHEMERIS_TYPE = 0
CLASSIFICATION_TYPE = U
NORAD_CAT_ID   = 27386
ELEMENT_SET_NO = 999
REV_AT_EPOCH   = 25100
BSTAR          = .55610525E-4
MEAN_MOTION_DOT = .129E-5
MEAN_MOTION_DDOT = 0

