SL-16 R/B               
1 25400U 98043G   26011.82877150  .00000063  00000+0  45101-4 0  9996
2 25400  98.8165 324.8218 0009869 173.3211 186.8102 14.26034032430882
SL-16 R/B               
1 25407U 98045B   26011.92530426 -.00000082  00000+0 -17505-4 0  9998
2 25407  71.0122 300.9474 0005345 122.2160 237.9482 14.16180085419060
ISS (ZARYA)             
1 25544U 98067A   26011.91888894  .00010131  00000+0  19006-3 0  9999
2 25544  51.6333 353.0651 0007709   8.0909 352.0202 15.49245617547537
CZ-4B R/B               
1 25732U 99025C   26011.74211496  .00000061  00000+0  50221-4 0  9998
2 25732  98.6729  57.3449 0037732 147.4499 322.0809 14.18251839380090
OKEAN-O                 
1 25860U 99039A   26011.87155438  .00000854  00000+0  11921-3 0  9995
2 25860  97.9559  72.3067 0001621 109.9551 250.1836 14.80224013425980
SL-16 R/B               
1 25861U 99039B   26011.90531146  .00000611  00000+0  84391-4 0  9997
2 25861  98.0082  71.0523 0016163  82.6746 277.6303 14.81638619428457
DELTA 2 R/B             
1 25876U 99041E   26011.87663226  .00003313  00000+0  57007-3 0  9992
2 25876  51.7602 168.1332 0503738 180.5994 179.4393 14.11536213355003
HELIOS 1B               
1 25977U 99064A   26011.80791022  .00002037  00000+0  23151-3 0  9993
2 25977  98.1743 272.3670 0000440 123.5770 236.5488 14.87430564676809
TERRA                   
1 25994U 99068A   26011.94623669  .00000490  00000+0  10915-3 0  9997
2 25994  97.9706  67.5157 0002565  31.5856  69.6499 14.60942333386797
SL-16 R/B               
1 26070U 00006B   26011.92593307 -.00000219  00000+0 -86989-4 0  9996
2 26070  71.0007 217.1887 0018998 268.2954  91.5993 14.15814996340525
TITAN 4B R/B            
1 26474U 00047B   26011.96993219  .00004145  00000+0  26552-3 0  9998
2 26474  67.9879 199.9381 0037147 106.9637 253.5589 15.09035339384353
ENVISAT                 
1 27386U 02009A   26011.86520682  .00000129  00000+0  55611-4 0  9997
2 27386  98.3640 326.8488 0001135  91.5138 283.5662 14.39012521251002
